[{"OBJECT_NAME":"JILIN-1 GAOFEN 03D50","OBJECT_ID":"2022-167J","EPOCH":"2026-03-09T22:35:59.947584","MEAN_MOTION":15.32279726,"ECCENTRICITY":0.00065764,"INCLINATION":97.6731,"RA_OF_ASC_NODE":232.9458,"ARG_OF_PERICENTER":101.1473,"MEAN_ANOMALY":259.0507,"EPHEMERIS_TYPE":0,"CLASSIFICATION_TYPE":"U","NORAD_CAT_ID":54690,"ELEMENT_SET_NO":999,"REV_AT_EPOCH":18014,"BSTAR":0.00049467973,"MEAN_MOTION_DOT":0.00015359,"MEAN_MOTION_DDOT":0},{"OBJECT_NAME":"STARLINK-34894","OBJECT_ID":"2025-216V","EPOCH":"2026-03-09T22:38:15.718272","MEAN_MOTION":15.30176939,"ECCENTRICITY":9.892e-5,"INCLINATION":53.1594,"RA_OF_ASC_NODE":331.6281,"ARG_OF_PERICENTER":41.0421,"MEAN_ANOMALY":319.0654,"EPHEMERIS_TYPE":0,"CLASSIFICATION_TYPE":"U","NORAD_CAT_ID":65753,"ELEMENT_SET_NO":999,"REV_AT_EPOCH":2655,"BSTAR":0.00021390176,"MEAN_MOTION_DOT":5.977e-5,"MEAN_MOTION_DDOT":0}]
